{
    "links": {
        "self": "http://www.neowsapp.com/rest/v1/neo/3835955?api_key=iIulBulltgU6a56xZRHN4H3l9WmuAYTsLGpBGhQ2"
    },
    "id": "3835955",
    "neo_reference_id": "3835955",
    "name": "(2018 VV)",
    "designation": "2018 VV",
    "nasa_jpl_url": "http://ssd.jpl.nasa.gov/sbdb.cgi?sstr=3835955",
    "absolute_magnitude_h": 22.7,
    "estimated_diameter": {
        "kilometers": {
            "estimated_diameter_min": 0.0766575574,
            "estimated_diameter_max": 0.1714115092
        },
        "meters": {
            "estimated_diameter_min": 76.6575573531,
            "estimated_diameter_max": 171.4115092306
        },
        "miles": {
            "estimated_diameter_min": 0.0476327831,
            "estimated_diameter_max": 0.1065101409
        },
        "feet": {
            "estimated_diameter_min": 251.5011804664,
            "estimated_diameter_max": 562.3737359442
        }
    },
    "is_potentially_hazardous_asteroid": false,
    "close_approach_data": [
        {
            "close_approach_date": "2016-11-16",
            "close_approach_date_full": "2016-Nov-16 16:25",
            "epoch_date_close_approach": 1479313500000,
            "relative_velocity": {
                "kilometers_per_second": "16.6744837193",
                "kilometers_per_hour": "60028.1413895678",
                "miles_per_hour": "37299.1526317568"
            },
            "miss_distance": {
                "astronomical": "0.4172219284",
                "lunar": "162.2993301476",
                "kilometers": "62415511.805932508",
                "miles": "38783200.6352962904"
            },
            "orbiting_body": "Earth"
        },
        {
            "close_approach_date": "2018-11-07",
            "close_approach_date_full": "2018-Nov-07 05:13",
            "epoch_date_close_approach": 1541567580000,
            "relative_velocity": {
                "kilometers_per_second": "14.40151397",
                "kilometers_per_hour": "51845.450291964",
                "miles_per_hour": "32214.7465994706"
            },
            "miss_distance": {
                "astronomical": "0.0973578366",
                "lunar": "37.8721984374",
                "kilometers": "14564524.983168042",
                "miles": "9049976.1715692996"
            },
            "orbiting_body": "Earth"
        },
        {
            "close_approach_date": "2020-10-24",
            "close_approach_date_full": "2020-Oct-24 20:46",
            "epoch_date_close_approach": 1603572360000,
            "relative_velocity": {
                "kilometers_per_second": "19.1757433848",
                "kilometers_per_hour": "69032.6761854402",
                "miles_per_hour": "42894.2203775587"
            },
            "miss_distance": {
                "astronomical": "0.4262902629",
                "lunar": "165.8269122681",
                "kilometers": "63772115.331580023",
                "miles": "39626154.9778213974"
            },
            "orbiting_body": "Earth"
        }
    ],
    "orbital_data": {
        "orbit_id": "11",
        "orbit_determination_date": "2020-09-11 07:41:01",
        "first_observation_date": "2018-11-01",
        "last_observation_date": "2018-11-27",
        "data_arc_in_days": 26,
        "observations_used": 101,
        "orbit_uncertainty": "7",
        "minimum_orbit_intersection": ".0984393",
        "jupiter_tisserand_invariant": "4.285",
        "epoch_osculation": "2459000.5",
        "eccentricity": ".3050994550676468",
        "semi_major_axis": "1.553285312443873",
        "inclination": "26.04977196523665",
        "ascending_node_longitude": "43.36052835196036",
        "orbital_period": "707.0909525820288",
        "perihelion_distance": "1.079378810052668",
        "perihelion_argument": "16.60558471749263",
        "aphelion_distance": "2.027191814835078",
        "perihelion_time": "2459151.829862644317",
        "mean_anomaly": "282.9536874244842",
        "mean_motion": ".5091282793046865",
        "equinox": "J2000",
        "orbit_class": {
            "orbit_class_type": "AMO",
            "orbit_class_description": "Near-Earth asteroid orbits similar to that of 1221 Amor",
            "orbit_class_range": "1.017 AU < q (perihelion) < 1.3 AU"
        }
    },
    "is_sentry_object": false
}